SHIYAN-24C 03           
1 58652U 23206C   26068.89147317  .00001350  00000+0  11928-3 0  9993
2 58652  97.3969  41.7507 0002411  66.6237 293.5240 14.97896938120432
STARLINK-34434          
1 64422U 25129L   26068.42768415 -.00003311  00000+0 -26984-3 0  9997
2 64422  70.0009  75.2956 0003163 271.5115  88.5682 14.98323947 41243
